ONEWEB-0647             
1 56079U 23043AK  23290.51449269  .00000120  00000+0  28386-3 0  9997
2 56079  87.8951  93.0811 0002184  85.6221 274.5159 13.15544013 28402
ONEWEB-0651             
1 56080U 23043AL  23290.51025862  .00000111  00000+0  26135-3 0  9998
2 56080  87.8948  93.0552 0002062  98.7651 261.3712 13.15546532 29609
ONEWEB-0718             
1 56081U 23043AM  23290.50603355  .00000111  00000+0  26187-3 0  9994
2 56081  87.8876  93.0737 0001030  95.3024 264.8224 13.15546840 28412
GSLV R/B                
1 56082U 23043AN  23290.44354758  .00040907  00000+0  76926-3 0  9991
2 56082  87.4107  69.6423 0019699 308.7479  51.2019 15.48183342 31643
ONEWEB-0561             
1 56710U 23068A   23290.52693126  .00000055  00000+0  85105-4 0  9990
2 56710  88.2873 102.5662 0002470  77.1346 283.0071 13.34309716 20763
ONEWEB-0668             
1 56711U 23068B   23290.44307467  .00002793  00000+0  37742-3 0  9996
2 56711  86.7204  78.9691 0017008  61.9897 298.3042 14.78606481 22305
ONEWEB-0676             
1 56712U 23068C   23290.45678021 -.00000112  00000+0 -18909-4 0  9995
2 56712  86.7159  78.8952 0017101  63.4730 296.8241 14.78498184 22304
ONEWEB-0677             
1 56713U 23068D   23290.51912919 -.00000017  00000+0 -59568-4 0  9990
2 56713  88.3206 100.4769 0002291 101.4460 258.6939 13.34758273 20948
